ATLAS CENTAUR R/B       
1 06155U 72065B   26093.21945416  .00002077  00000+0  28518-3 0  9991
2 06155  35.0007 161.9903 0033864 217.6059 142.2272 14.77762397844893
SL-8 R/B                
1 08459U 75112B   26093.12693980  .00000345  00000+0  12186-3 0  9992
2 08459  74.0623 333.9622 0014674  57.2804 302.9762 14.38218297635385
SL-3 R/B                
1 10114U 77057B   26093.25229188  .00021551  00000+0  43925-3 0  9999
2 10114  97.5800 266.2721 0007148 185.2113 174.9062 15.46229818672128
SEASAT 1                
1 10967U 78064A   26093.19042650  .00000539  00000+0  18900-3 0  9992
2 10967 108.0069 176.9067 0002714 273.5139  86.5696 14.46182399510057
SL-14 R/B               
1 11267U 79011B   26092.99366335  .00001075  00000+0  10354-3 0  9996
2 11267  82.5217  73.5014 0015456 342.0902  17.9771 14.91942841532404
SL-8 R/B                
1 11574U 79089B   26093.22925721  .00000538  00000+0  17054-3 0  9996
2 11574  74.0699  45.6146 0016578 214.9897 145.0171 14.42368176439645
SL-14 R/B               
1 11672U 80005B   26093.22404119  .00000963  00000+0  94714-4 0  9999
2 11672  82.5108 283.9567 0017229  82.4901 277.8275 14.90961007480140
SL-8 R/B                
1 12139U 81003B   26092.96620930  .00033381  00000+0  83091-3 0  9993
2 12139  82.9330 267.5546 0260131  94.2915 268.8086 15.12098954318342
SL-3 R/B                
1 12465U 81046B   26093.24380921  .00019599  00000+0  44650-3 0  9990
2 12465  81.2286 260.2399 0018087 294.8821  65.0541 15.42629781442215
SL-3 R/B                
1 12904U 81103B   26093.23654375  .00008319  00000+0  36587-3 0  9996
2 12904  81.1614 184.6368 0013067 199.6247 160.4483 15.21680639976964
SL-3 R/B                
1 13068U 82013B   26093.23489036  .00006750  00000+0  29021-3 0  9991
2 13068  81.1724 131.9975 0023542  97.3685 263.0224 15.22244495408089
SL-3 R/B                
1 13154U 82039B   26093.23886661  .00004744  00000+0  28618-3 0  9992
2 13154  81.1562 187.6539 0028252 242.7451 117.0896 15.10227483385340
