CCSDS_OMM_VERS = 2.0
CREATION_DATE  = 
ORIGINATOR     = 

OBJECT_NAME    = ATLAS CENTAUR R/B
OBJECT_ID      = 1972-065B
CENTER_NAME    = EARTH
REF_FRAME      = TEME
TIME_SYSTEM    = UTC
MEAN_ELEMENT_THEORY = SGP/SGP4

EPOCH          = 2026-04-03T05:16:00.839424
MEAN_MOTION    = 14.77762397
ECCENTRICITY   = .00338643
INCLINATION    = 35.0007
RA_OF_ASC_NODE = 161.9903
ARG_OF_PERICENTER = 217.6059
MEAN_ANOMALY   = 142.2272

EPHEMERIS_TYPE = 0
CLASSIFICATION_TYPE = U
NORAD_CAT_ID   = 6155
ELEMENT_SET_NO = 999
REV_AT_EPOCH   = 84489
BSTAR          = .28517525E-3
MEAN_MOTION_DOT = .2077E-4
MEAN_MOTION_DDOT = 0

CCSDS_OMM_VERS = 2.0
CREATION_DATE  = 
ORIGINATOR     = 

OBJECT_NAME    = SL-8 R/B
OBJECT_ID      = 1975-112B
CENTER_NAME    = EARTH
REF_FRAME      = TEME
TIME_SYSTEM    = UTC
MEAN_ELEMENT_THEORY = SGP/SGP4

EPOCH          = 2026-04-03T03:02:47.598720
MEAN_MOTION    = 14.38218297
ECCENTRICITY   = .00146745
INCLINATION    = 74.0623
RA_OF_ASC_NODE = 333.9622
ARG_OF_PERICENTER = 57.2804
MEAN_ANOMALY   = 302.9762

EPHEMERIS_TYPE = 0
CLASSIFICATION_TYPE = U
NORAD_CAT_ID   = 8459
ELEMENT_SET_NO = 999
REV_AT_EPOCH   = 63538
BSTAR          = .12185708E-3
MEAN_MOTION_DOT = .345E-5
MEAN_MOTION_DDOT = 0

CCSDS_OMM_VERS = 2.0
CREATION_DATE  = 
ORIGINATOR     = 

OBJECT_NAME    = SL-3 R/B
OBJECT_ID      = 1977-057B
CENTER_NAME    = EARTH
REF_FRAME      = TEME
TIME_SYSTEM    = UTC
MEAN_ELEMENT_THEORY = SGP/SGP4

EPOCH          = 2026-04-03T06:03:18.018432
MEAN_MOTION    = 15.46229818
ECCENTRICITY   = .00071487
INCLINATION    = 97.5800
RA_OF_ASC_NODE = 266.2721
ARG_OF_PERICENTER = 185.2113
MEAN_ANOMALY   = 174.9062

EPHEMERIS_TYPE = 0
CLASSIFICATION_TYPE = U
NORAD_CAT_ID   = 10114
ELEMENT_SET_NO = 999
REV_AT_EPOCH   = 67212
BSTAR          = .43924687E-3
MEAN_MOTION_DOT = .21551E-3
MEAN_MOTION_DDOT = 0

CCSDS_OMM_VERS = 2.0
CREATION_DATE  = 
ORIGINATOR     = 

OBJECT_NAME    = SEASAT 1
OBJECT_ID      = 1978-064A
CENTER_NAME    = EARTH
REF_FRAME      = TEME
TIME_SYSTEM    = UTC
MEAN_ELEMENT_THEORY = SGP/SGP4

EPOCH          = 2026-04-03T04:34:12.849600
MEAN_MOTION    = 14.46182399
ECCENTRICITY   = .00027149
INCLINATION    = 108.0069
RA_OF_ASC_NODE = 176.9067
ARG_OF_PERICENTER = 273.5139
MEAN_ANOMALY   = 86.5696

EPHEMERIS_TYPE = 0
CLASSIFICATION_TYPE = U
NORAD_CAT_ID   = 10967
ELEMENT_SET_NO = 999
REV_AT_EPOCH   = 51005
BSTAR          = .18899556E-3
MEAN_MOTION_DOT = .539E-5
MEAN_MOTION_DDOT = 0

CCSDS_OMM_VERS = 2.0
CREATION_DATE  = 
ORIGINATOR     = 

OBJECT_NAME    = SL-14 R/B
OBJECT_ID      = 1979-011B
CENTER_NAME    = EARTH
REF_FRAME      = TEME
TIME_SYSTEM    = UTC
MEAN_ELEMENT_THEORY = SGP/SGP4

EPOCH          = 2026-04-02T23:50:52.513440
MEAN_MOTION    = 14.91942841
ECCENTRICITY   = .00154569
INCLINATION    = 82.5217
RA_OF_ASC_NODE = 73.5014
ARG_OF_PERICENTER = 342.0902
MEAN_ANOMALY   = 17.9771

EPHEMERIS_TYPE = 0
CLASSIFICATION_TYPE = U
NORAD_CAT_ID   = 11267
ELEMENT_SET_NO = 999
REV_AT_EPOCH   = 53240
BSTAR          = .10353553E-3
MEAN_MOTION_DOT = .1075E-4
MEAN_MOTION_DDOT = 0

CCSDS_OMM_VERS = 2.0
CREATION_DATE  = 
ORIGINATOR     = 

OBJECT_NAME    = SL-8 R/B
OBJECT_ID      = 1979-089B
CENTER_NAME    = EARTH
REF_FRAME      = TEME
TIME_SYSTEM    = UTC
MEAN_ELEMENT_THEORY = SGP/SGP4

EPOCH          = 2026-04-03T05:30:07.822944
MEAN_MOTION    = 14.42368176
ECCENTRICITY   = .00165788
INCLINATION    = 74.0699
RA_OF_ASC_NODE = 45.6146
ARG_OF_PERICENTER = 214.9897
MEAN_ANOMALY   = 145.0171

EPHEMERIS_TYPE = 0
CLASSIFICATION_TYPE = U
NORAD_CAT_ID   = 11574
ELEMENT_SET_NO = 999
REV_AT_EPOCH   = 43964
BSTAR          = .17053897E-3
MEAN_MOTION_DOT = .538E-5
MEAN_MOTION_DDOT = 0

CCSDS_OMM_VERS = 2.0
CREATION_DATE  = 
ORIGINATOR     = 

OBJECT_NAME    = SL-14 R/B
OBJECT_ID      = 1980-005B
CENTER_NAME    = EARTH
REF_FRAME      = TEME
TIME_SYSTEM    = UTC
MEAN_ELEMENT_THEORY = SGP/SGP4

EPOCH          = 2026-04-03T05:22:37.158816
MEAN_MOTION    = 14.90961007
ECCENTRICITY   = .00172295
INCLINATION    = 82.5108
RA_OF_ASC_NODE = 283.9567
ARG_OF_PERICENTER = 82.4901
MEAN_ANOMALY   = 277.8275

EPHEMERIS_TYPE = 0
CLASSIFICATION_TYPE = U
NORAD_CAT_ID   = 11672
ELEMENT_SET_NO = 999
REV_AT_EPOCH   = 48014
BSTAR          = .94714217E-4
MEAN_MOTION_DOT = .963E-5
MEAN_MOTION_DDOT = 0

CCSDS_OMM_VERS = 2.0
CREATION_DATE  = 
ORIGINATOR     = 

OBJECT_NAME    = SL-8 R/B
OBJECT_ID      = 1981-003B
CENTER_NAME    = EARTH
REF_FRAME      = TEME
TIME_SYSTEM    = UTC
MEAN_ELEMENT_THEORY = SGP/SGP4

EPOCH          = 2026-04-02T23:11:20.483520
MEAN_MOTION    = 15.12098954
ECCENTRICITY   = .02601319
INCLINATION    = 82.9330
RA_OF_ASC_NODE = 267.5546
ARG_OF_PERICENTER = 94.2915
MEAN_ANOMALY   = 268.8086

EPHEMERIS_TYPE = 0
CLASSIFICATION_TYPE = U
NORAD_CAT_ID   = 12139
ELEMENT_SET_NO = 999
REV_AT_EPOCH   = 31834
BSTAR          = .8309089E-3
MEAN_MOTION_DOT = .33381E-3
MEAN_MOTION_DDOT = 0

CCSDS_OMM_VERS = 2.0
CREATION_DATE  = 
ORIGINATOR     = 

OBJECT_NAME    = SL-3 R/B
OBJECT_ID      = 1981-046B
CENTER_NAME    = EARTH
REF_FRAME      = TEME
TIME_SYSTEM    = UTC
MEAN_ELEMENT_THEORY = SGP/SGP4

EPOCH          = 2026-04-03T05:51:05.115744
MEAN_MOTION    = 15.42629781
ECCENTRICITY   = .00180876
INCLINATION    = 81.2286
RA_OF_ASC_NODE = 260.2399
ARG_OF_PERICENTER = 294.8821
MEAN_ANOMALY   = 65.0541

EPHEMERIS_TYPE = 0
CLASSIFICATION_TYPE = U
NORAD_CAT_ID   = 12465
ELEMENT_SET_NO = 999
REV_AT_EPOCH   = 44221
BSTAR          = .44650093E-3
MEAN_MOTION_DOT = .19599E-3
MEAN_MOTION_DDOT = 0

CCSDS_OMM_VERS = 2.0
CREATION_DATE  = 
ORIGINATOR     = 

OBJECT_NAME    = SL-3 R/B
OBJECT_ID      = 1981-103B
CENTER_NAME    = EARTH
REF_FRAME      = TEME
TIME_SYSTEM    = UTC
MEAN_ELEMENT_THEORY = SGP/SGP4

EPOCH          = 2026-04-03T05:40:37.380000
MEAN_MOTION    = 15.21680639
ECCENTRICITY   = .00130679
INCLINATION    = 81.1614
RA_OF_ASC_NODE = 184.6368
ARG_OF_PERICENTER = 199.6247
MEAN_ANOMALY   = 160.4483

EPHEMERIS_TYPE = 0
CLASSIFICATION_TYPE = U
NORAD_CAT_ID   = 12904
ELEMENT_SET_NO = 999
REV_AT_EPOCH   = 97696
BSTAR          = .36587175E-3
MEAN_MOTION_DOT = .8319E-4
MEAN_MOTION_DDOT = 0

CCSDS_OMM_VERS = 2.0
CREATION_DATE  = 
ORIGINATOR     = 

OBJECT_NAME    = SL-3 R/B
OBJECT_ID      = 1982-013B
CENTER_NAME    = EARTH
REF_FRAME      = TEME
TIME_SYSTEM    = UTC
MEAN_ELEMENT_THEORY = SGP/SGP4

EPOCH          = 2026-04-03T05:38:14.527104
MEAN_MOTION    = 15.22244495
ECCENTRICITY   = .00235427
INCLINATION    = 81.1724
RA_OF_ASC_NODE = 131.9975
ARG_OF_PERICENTER = 97.3685
MEAN_ANOMALY   = 263.0224

EPHEMERIS_TYPE = 0
CLASSIFICATION_TYPE = U
NORAD_CAT_ID   = 13068
ELEMENT_SET_NO = 999
REV_AT_EPOCH   = 40808
BSTAR          = .29020819E-3
MEAN_MOTION_DOT = .675E-4
MEAN_MOTION_DDOT = 0

CCSDS_OMM_VERS = 2.0
CREATION_DATE  = 
ORIGINATOR     = 

OBJECT_NAME    = SL-3 R/B
OBJECT_ID      = 1982-039B
CENTER_NAME    = EARTH
REF_FRAME      = TEME
TIME_SYSTEM    = UTC
MEAN_ELEMENT_THEORY = SGP/SGP4

EPOCH          = 2026-04-03T05:43:58.075104
MEAN_MOTION    = 15.10227483
ECCENTRICITY   = .00282526
INCLINATION    = 81.1562
RA_OF_ASC_NODE = 187.6539
ARG_OF_PERICENTER = 242.7451
MEAN_ANOMALY   = 117.0896

EPHEMERIS_TYPE = 0
CLASSIFICATION_TYPE = U
NORAD_CAT_ID   = 13154
ELEMENT_SET_NO = 999
REV_AT_EPOCH   = 38534
BSTAR          = .28617954E-3
MEAN_MOTION_DOT = .4744E-4
MEAN_MOTION_DDOT = 0

